{"type": "FeatureCollection", "features": [{"type": "Feature", "properties": {"norad_id": 26766, "name": "INTELSAT 10 (IS-10)", "group": "intelsat", "lat": -7.480658745170643, "lon": -59.19182179006143, "alt_km": 36093.112303140064, "timestamp": "2025-12-14T05:42:18.124856+00:00", "meta": {"OBJECT_NAME": "INTELSAT 10 (IS-10)", "OBJECT_ID": "2001-019A", "EPOCH": "2025-12-13T14:05:32.067744", "MEAN_MOTION": 0.99078362, "ECCENTRICITY": 0.00077388, "INCLINATION": 8.632, "RA_OF_ASC_NODE": 61.1493, "ARG_OF_PERICENTER": 225.9608, "MEAN_ANOMALY": 141.9213, "EPHEMERIS_TYPE": 0, "CLASSIFICATION_TYPE": "U", "NORAD_CAT_ID": 26766, "ELEMENT_SET_NO": 999, "REV_AT_EPOCH": 4374, "BSTAR": 0, "MEAN_MOTION_DOT": -2.69e-06, "MEAN_MOTION_DDOT": 0}, "tle": {"line1": "1 26766U 01019A   25347.58717671 -.00000269  00000+0  00000+0 0  9997", "line2": "2 26766   8.6320  61.1493 0007738 225.9608 141.9213  0.99078362 43742"}}, "geometry": {"type": "Point", "coordinates": [-59.19182179006143, -7.480658745170643]}}, {"type": "Feature", "properties": {"norad_id": 26900, "name": "INTELSAT 902 (IS-902)", "group": "intelsat", "lat": 3.9752207036487084, "lon": 118.45969296250985, "alt_km": 35800.152279164264, "timestamp": "2025-12-14T05:42:18.124880+00:00", "meta": {"OBJECT_NAME": "INTELSAT 902 (IS-902)", "OBJECT_ID": "2001-039A", "EPOCH": "2025-12-11T04:42:42.842016", "MEAN_MOTION": 1.00272526, "ECCENTRICITY": 0.00044264, "INCLINATION": 5.6424, "RA_OF_ASC_NODE": 74.0881, "ARG_OF_PERICENTER": 184.9809, "MEAN_ANOMALY": 201.6699, "EPHEMERIS_TYPE": 0, "CLASSIFICATION_TYPE": "U", "NORAD_CAT_ID": 26900, "ELEMENT_SET_NO": 999, "REV_AT_EPOCH": 8881, "BSTAR": 0, "MEAN_MOTION_DOT": -2.78e-06, "MEAN_MOTION_DDOT": 0}, "tle": {"line1": "1 26900U 01039A   25345.19632919 -.00000278  00000+0  00000+0 0  9995", "line2": "2 26900   5.6424  74.0881 0004426 184.9809 201.6699  1.00272526 88816"}}, "geometry": {"type": "Point", "coordinates": [118.45969296250985, 3.9752207036487084]}}, {"type": "Feature", "properties": {"norad_id": 27380, "name": "INTELSAT 904 (IS-904)", "group": "intelsat", "lat": 5.899582940421629, "lon": 137.09019458135475, "alt_km": 35791.44836485067, "timestamp": "2025-12-14T05:42:18.124896+00:00", "meta": {"OBJECT_NAME": "INTELSAT 904 (IS-904)", "OBJECT_ID": "2002-007A", "EPOCH": "2025-12-13T15:00:41.787360", "MEAN_MOTION": 1.00272569, "ECCENTRICITY": 0.00015439, "INCLINATION": 6.457, "RA_OF_ASC_NODE": 71.4225, "ARG_OF_PERICENTER": 231.5446, "MEAN_ANOMALY": 333.2596, "EPHEMERIS_TYPE": 0, "CLASSIFICATION_TYPE": "U", "NORAD_CAT_ID": 27380, "ELEMENT_SET_NO": 999, "REV_AT_EPOCH": 4990, "BSTAR": 0, "MEAN_MOTION_DOT": -2.13e-06, "MEAN_MOTION_DDOT": 0}, "tle": {"line1": "1 27380U 02007A   25347.62548365 -.00000213  00000+0  00000+0 0  9994", "line2": "2 27380   6.4570  71.4225 0001543 231.5446 333.2596  1.00272569 49908"}}, "geometry": {"type": "Point", "coordinates": [137.09019458135475, 5.899582940421629]}}, {"type": "Feature", "properties": {"norad_id": 27426, "name": "DIRECTV 5 (TEMPO 1)", "group": "intelsat", "lat": -1.413561982060075, "lon": 58.681660035513005, "alt_km": 35797.821651780614, "timestamp": "2025-12-14T05:42:18.124909+00:00", "meta": {"OBJECT_NAME": "DIRECTV 5 (TEMPO 1)", "OBJECT_ID": "2002-023A", "EPOCH": "2025-12-13T12:58:10.801056", "MEAN_MOTION": 1.00272204, "ECCENTRICITY": 0.00034433, "INCLINATION": 4.4044, "RA_OF_ASC_NODE": 77.6443, "ARG_OF_PERICENTER": 197.8329, "MEAN_ANOMALY": 251.4153, "EPHEMERIS_TYPE": 0, "CLASSIFICATION_TYPE": "U", "NORAD_CAT_ID": 27426, "ELEMENT_SET_NO": 999, "REV_AT_EPOCH": 8626, "BSTAR": 0, "MEAN_MOTION_DOT": -4.3e-07, "MEAN_MOTION_DDOT": 0}, "tle": {"line1": "1 27426U 02023A   25347.54040279 -.00000043  00000+0  00000+0 0  9996", "line2": "2 27426   4.4044  77.6443 0003443 197.8329 251.4153  1.00272204 86264"}}, "geometry": {"type": "Point", "coordinates": [58.681660035513005, -1.413561982060075]}}, {"type": "Feature", "properties": {"norad_id": 27438, "name": "INTELSAT 905 (IS-905)", "group": "intelsat", "lat": -4.063232640481616, "lon": 31.74270902466542, "alt_km": 35791.459852684915, "timestamp": "2025-12-14T05:42:18.124922+00:00", "meta": {"OBJECT_NAME": "INTELSAT 905 (IS-905)", "OBJECT_ID": "2002-027A", "EPOCH": "2025-12-13T10:28:18.325344", "MEAN_MOTION": 1.00273844, "ECCENTRICITY": 0.0002665, "INCLINATION": 6.2877, "RA_OF_ASC_NODE": 72.0486, "ARG_OF_PERICENTER": 200.4661, "MEAN_ANOMALY": 189.7386, "EPHEMERIS_TYPE": 0, "CLASSIFICATION_TYPE": "U", "NORAD_CAT_ID": 27438, "ELEMENT_SET_NO": 999, "REV_AT_EPOCH": 4950, "BSTAR": 0, "MEAN_MOTION_DOT": 1.06e-06, "MEAN_MOTION_DDOT": 0}, "tle": {"line1": "1 27438U 02027A   25347.43632321  .00000106  00000+0  00000+0 0  9995", "line2": "2 27438   6.2877  72.0486 0002665 200.4661 189.7386  1.00273844 49500"}}, "geometry": {"type": "Point", "coordinates": [31.74270902466542, -4.063232640481616]}}, {"type": "Feature", "properties": {"norad_id": 27445, "name": "GALAXY 3C (G-3C)", "group": "intelsat", "lat": -0.3567913824398147, "lon": 73.86120488922093, "alt_km": 35786.377281366586, "timestamp": "2025-12-14T05:42:18.124934+00:00", "meta": {"OBJECT_NAME": "GALAXY 3C (G-3C)", "OBJECT_ID": "2002-030A", "EPOCH": "2025-12-13T11:58:04.541952", "MEAN_MOTION": 1.00271583, "ECCENTRICITY": 0.00010728, "INCLINATION": 3.2663, "RA_OF_ASC_NODE": 80.4998, "ARG_OF_PERICENTER": 85.3822, "MEAN_ANOMALY": 1.2028, "EPHEMERIS_TYPE": 0, "CLASSIFICATION_TYPE": "U", "NORAD_CAT_ID": 27445, "ELEMENT_SET_NO": 999, "REV_AT_EPOCH": 4463, "BSTAR": 0, "MEAN_MOTION_DOT": -1.38e-06, "MEAN_MOTION_DDOT": 0}, "tle": {"line1": "1 27445U 02030A   25347.49866368 -.00000138  00000+0  00000+0 0  9999", "line2": "2 27445   3.2663  80.4998 0001072  85.3822   1.2028  1.00271583 44637"}}, "geometry": {"type": "Point", "coordinates": [73.86120488922093, -0.3567913824398147]}}, {"type": "Feature", "properties": {"norad_id": 27513, "name": "INTELSAT 906 (IS-906)", "group": "intelsat", "lat": 2.010161228757101, "lon": -127.09452883710021, "alt_km": 35764.48785896257, "timestamp": "2025-12-14T05:42:18.124947+00:00", "meta": {"OBJECT_NAME": "INTELSAT 906 (IS-906)", "OBJECT_ID": "2002-041A", "EPOCH": "2025-12-13T08:37:03.527040", "MEAN_MOTION": 1.00271606, "ECCENTRICITY": 0.00062023, "INCLINATION": 5.3305, "RA_OF_ASC_NODE": 75.2238, "ARG_OF_PERICENTER": 193.3176, "MEAN_ANOMALY": 7.1431, "EPHEMERIS_TYPE": 0, "CLASSIFICATION_TYPE": "U", "NORAD_CAT_ID": 27513, "ELEMENT_SET_NO": 999, "REV_AT_EPOCH": 8516, "BSTAR": 0, "MEAN_MOTION_DOT": 2.6e-07, "MEAN_MOTION_DDOT": 0}, "tle": {"line1": "1 27513U 02041A   25347.35906860  .00000026  00000+0  00000+0 0  9999", "line2": "2 27513   5.3305  75.2238 0006202 193.3176   7.1431  1.00271606 85162"}}, "geometry": {"type": "Point", "coordinates": [-127.09452883710021, 2.010161228757101]}}, {"type": "Feature", "properties": {"norad_id": 27954, "name": "GALAXY 13 (HORIZONS-1)", "group": "intelsat", "lat": -0.8545522873463961, "lon": 18.744695806183213, "alt_km": 35790.77911780155, "timestamp": "2025-12-14T05:42:18.124960+00:00", "meta": {"OBJECT_NAME": "GALAXY 13 (HORIZONS-1)", "OBJECT_ID": "2003-044A", "EPOCH": "2025-12-13T14:34:48.967680", "MEAN_MOTION": 1.0027193, "ECCENTRICITY": 0.00020585, "INCLINATION": 0.9379, "RA_OF_ASC_NODE": 86.4573, "ARG_OF_PERICENTER": 169.6092, "MEAN_ANOMALY": 255.17, "EPHEMERIS_TYPE": 0, "CLASSIFICATION_TYPE": "U", "NORAD_CAT_ID": 27954, "ELEMENT_SET_NO": 999, "REV_AT_EPOCH": 4471, "BSTAR": 0, "MEAN_MOTION_DOT": 1.48e-06, "MEAN_MOTION_DDOT": 0}, "tle": {"line1": "1 27954U 03044A   25347.60751120  .00000148  00000+0  00000+0 0  9992", "line2": "2 27954   0.9379  86.4573 0002058 169.6092 255.1700  1.00271930 44717"}}, "geometry": {"type": "Point", "coordinates": [18.744695806183213, -0.8545522873463961]}}, {"type": "Feature", "properties": {"norad_id": 28358, "name": "INTELSAT 10-02", "group": "intelsat", "lat": 0.015191722475029923, "lon": 167.74833523449925, "alt_km": 35788.91235139657, "timestamp": "2025-12-14T05:42:18.124972+00:00", "meta": {"OBJECT_NAME": "INTELSAT 10-02", "OBJECT_ID": "2004-022A", "EPOCH": "2025-12-13T15:09:25.950240", "MEAN_MOTION": 1.00271167, "ECCENTRICITY": 0.00010752, "INCLINATION": 0.0253, "RA_OF_ASC_NODE": 68.9709, "ARG_OF_PERICENTER": 225.25, "MEAN_ANOMALY": 14.7327, "EPHEMERIS_TYPE": 0, "CLASSIFICATION_TYPE": "U", "NORAD_CAT_ID": 28358, "ELEMENT_SET_NO": 999, "REV_AT_EPOCH": 7869, "BSTAR": 0, "MEAN_MOTION_DOT": 5e-08, "MEAN_MOTION_DDOT": 0}, "tle": {"line1": "1 28358U 04022A   25347.63155035  .00000005  00000+0  00000+0 0  9996", "line2": "2 28358   0.0253  68.9709 0001075 225.2500  14.7327  1.00271167 78695"}}, "geometry": {"type": "Point", "coordinates": [167.74833523449925, 0.015191722475029923]}}, {"type": "Feature", "properties": {"norad_id": 28626, "name": "XM-3 (RHYTHM)", "group": "intelsat", "lat": -0.06224095150073824, "lon": -84.08564555704848, "alt_km": 36158.90814525526, "timestamp": "2025-12-14T05:42:18.124985+00:00", "meta": {"OBJECT_NAME": "XM-3 (RHYTHM)", "OBJECT_ID": "2005-008A", "EPOCH": "2025-12-13T15:41:00.424896", "MEAN_MOTION": 0.98952073, "ECCENTRICITY": 0.00016007, "INCLINATION": 0.1771, "RA_OF_ASC_NODE": 81.6242, "ARG_OF_PERICENTER": 272.7978, "MEAN_ANOMALY": 73.3958, "EPHEMERIS_TYPE": 0, "CLASSIFICATION_TYPE": "U", "NORAD_CAT_ID": 28626, "ELEMENT_SET_NO": 999, "REV_AT_EPOCH": 4075, "BSTAR": 0, "MEAN_MOTION_DOT": -1.19e-06, "MEAN_MOTION_DDOT": 0}, "tle": {"line1": "1 28626U 05008A   25347.65347714 -.00000119  00000+0  00000+0 0  9995", "line2": "2 28626   0.1771  81.6242 0001600 272.7978  73.3958  0.98952073 40758"}}, "geometry": {"type": "Point", "coordinates": [-84.08564555704848, -0.06224095150073824]}}]}